{
    "links": {
        "self": "http://www.neowsapp.com/rest/v1/neo/54016675?api_key=iIulBulltgU6a56xZRHN4H3l9WmuAYTsLGpBGhQ2"
    },
    "id": "54016675",
    "neo_reference_id": "54016675",
    "name": "(2020 HU3)",
    "designation": "2020 HU3",
    "nasa_jpl_url": "http://ssd.jpl.nasa.gov/sbdb.cgi?sstr=54016675",
    "absolute_magnitude_h": 25.937,
    "estimated_diameter": {
        "kilometers": {
            "estimated_diameter_min": 0.0172645386,
            "estimated_diameter_max": 0.0386046819
        },
        "meters": {
            "estimated_diameter_min": 17.2645386166,
            "estimated_diameter_max": 38.6046819468
        },
        "miles": {
            "estimated_diameter_min": 0.0107276836,
            "estimated_diameter_max": 0.0239878298
        },
        "feet": {
            "estimated_diameter_min": 56.6421888748,
            "estimated_diameter_max": 126.6557847185
        }
    },
    "is_potentially_hazardous_asteroid": false,
    "close_approach_data": [
        {
            "close_approach_date": "2008-05-10",
            "close_approach_date_full": "2008-May-10 21:40",
            "epoch_date_close_approach": 1210455600000,
            "relative_velocity": {
                "kilometers_per_second": "17.8634438049",
                "kilometers_per_hour": "64308.3976978056",
                "miles_per_hour": "39958.7374472837"
            },
            "miss_distance": {
                "astronomical": "0.319096768",
                "lunar": "124.128642752",
                "kilometers": "47736196.81668416",
                "miles": "29661897.261435008"
            },
            "orbiting_body": "Earth"
        },
        {
            "close_approach_date": "2020-04-20",
            "close_approach_date_full": "2020-Apr-20 19:23",
            "epoch_date_close_approach": 1587410580000,
            "relative_velocity": {
                "kilometers_per_second": "13.877616584",
                "kilometers_per_hour": "49959.4197022888",
                "miles_per_hour": "31042.8405366805"
            },
            "miss_distance": {
                "astronomical": "0.0083355543",
                "lunar": "3.2425306227",
                "kilometers": "1246981.168549341",
                "miles": "774838.1684132658"
            },
            "orbiting_body": "Earth"
        },
        {
            "close_approach_date": "2032-03-28",
            "close_approach_date_full": "2032-Mar-28 19:40",
            "epoch_date_close_approach": 1964115600000,
            "relative_velocity": {
                "kilometers_per_second": "16.1759129988",
                "kilometers_per_hour": "58233.2867957416",
                "miles_per_hour": "36183.899787054"
            },
            "miss_distance": {
                "astronomical": "0.3385801649",
                "lunar": "131.7076841461",
                "kilometers": "50650871.493288763",
                "miles": "31472992.1238924094"
            },
            "orbiting_body": "Earth"
        },
        {
            "close_approach_date": "2061-04-06",
            "close_approach_date_full": "2061-Apr-06 20:31",
            "epoch_date_close_approach": 2880045060000,
            "relative_velocity": {
                "kilometers_per_second": "14.5428913687",
                "kilometers_per_hour": "52354.4089273902",
                "miles_per_hour": "32530.9937026886"
            },
            "miss_distance": {
                "astronomical": "0.2143049861",
                "lunar": "83.3646395929",
                "kilometers": "32059569.450939607",
                "miles": "19920892.7127442966"
            },
            "orbiting_body": "Earth"
        }
    ],
    "orbital_data": {
        "orbit_id": "5",
        "orbit_determination_date": "2020-04-29 06:53:47",
        "first_observation_date": "2020-04-21",
        "last_observation_date": "2020-04-27",
        "data_arc_in_days": 6,
        "observations_used": 106,
        "orbit_uncertainty": "7",
        "minimum_orbit_intersection": ".00817491",
        "jupiter_tisserand_invariant": "4.557",
        "epoch_osculation": "2459000.5",
        "eccentricity": ".297761490186932",
        "semi_major_axis": "1.428069843320508",
        "inclination": "24.11951584079874",
        "ascending_node_longitude": "211.0384205632124",
        "orbital_period": "623.3365589511707",
        "perihelion_distance": "1.002845638682375",
        "perihelion_argument": "342.6851458977425",
        "aphelion_distance": "1.853294047958641",
        "perihelion_time": "2458944.845312501106",
        "mean_anomaly": "32.1426478390966",
        "mean_motion": ".5775371183197371",
        "equinox": "J2000",
        "orbit_class": {
            "orbit_class_type": "APO",
            "orbit_class_description": "Near-Earth asteroid orbits which cross the Earth’s orbit similar to that of 1862 Apollo",
            "orbit_class_range": "a (semi-major axis) > 1.0 AU; q (perihelion) < 1.017 AU"
        }
    },
    "is_sentry_object": false
}